[{"OBJECT_NAME":"STARLINK-1454","OBJECT_ID":"2020-035Q","EPOCH":"2026-03-10T00:00:02.999808","MEAN_MOTION":15.51126442,"ECCENTRICITY":0.00086064,"INCLINATION":53.0515,"RA_OF_ASC_NODE":51.3708,"ARG_OF_PERICENTER":61.5292,"MEAN_ANOMALY":248.5071,"EPHEMERIS_TYPE":0,"CLASSIFICATION_TYPE":"U","NORAD_CAT_ID":45671,"ELEMENT_SET_NO":999,"REV_AT_EPOCH":591,"BSTAR":0.001841095,"MEAN_MOTION_DOT":0.00110444,"MEAN_MOTION_DDOT":0},{"OBJECT_NAME":"STARLINK-1493","OBJECT_ID":"2020-038AF","EPOCH":"2026-03-09T23:10:29.667360","MEAN_MOTION":15.5030174,"ECCENTRICITY":0.00018687,"INCLINATION":53.0528,"RA_OF_ASC_NODE":203.177,"ARG_OF_PERICENTER":31.7512,"MEAN_ANOMALY":328.3608,"EPHEMERIS_TYPE":0,"CLASSIFICATION_TYPE":"U","NORAD_CAT_ID":45759,"ELEMENT_SET_NO":999,"REV_AT_EPOCH":31668,"BSTAR":0.0020428656,"MEAN_MOTION_DOT":0.00119034,"MEAN_MOTION_DDOT":0}]
